[
    {
        "Altitude(m)": 611967.2073319862,
        "Argument of Periapsis(deg)": 0.0,
        "Eccentricity": 0.0,
        "Inclination(deg)": 60.0,
        "Latitude(deg)": 59.14024766349158,
        "Longitude(deg)": 66.09197966103162,
        "Mean Anomaly(deg)": 98.18179999999998,
        "RAAN(deg)": 60.0,
        "Satellite Name": "Test1 270",
        "Satellite Number": 270,
        "Semi-Major Axis(m)": 6980739.136638005,
        "Time(s)": 0
    },
    {
        "Altitude(m)": 611934.4075740371,
        "Argument of Periapsis(deg)": 0.00010418945913296404,
        "Eccentricity": 0.0,
        "Inclination(deg)": 60.0,
        "Latitude(deg)": 58.98661075093767,
        "Longitude(deg)": 67.21522867870277,
        "Mean Anomaly(deg)": 98.80190614546183,
        "RAAN(deg)": 59.99957995086026,
        "Satellite Name": "Test1 270",
        "Satellite Number": 270,
        "Semi-Major Axis(m)": 6980739.136638005,
        "Time(s)": 10
    }
]